     3.02           N: GNSS NAV DATA    G: GPS              RINEX VERSION / TYPE
RTKCONV 2.4.3 b33   Joao Manito         20210122 123751 UTC PGM / RUN BY / DATE 
log: D:\Personal\Google Drive (joao.manito@tecnico.ulisboa  COMMENT             
format: u-blox                                              COMMENT             
GPSA   1.2107E-08 -7.4506E-09 -1.1921E-07  5.9605E-08       IONOSPHERIC CORR    
GPSB   9.6256E+04 -3.2768E+04 -1.9661E+05  1.9661E+05       IONOSPHERIC CORR    
GPUT -9.3132257462E-10-5.329070518E-15  61440 2130          TIME SYSTEM CORR    
    18                                                      LEAP SECONDS        
                                                            END OF HEADER       
G32 2020 10 30 22  0  0  .362895894796E-03  .363797880709E-11  .000000000000E+00
      .680000000000E+02 -.521562500000E+02  .471233914498E-08 -.138974987897E+01
     -.264309346676E-05  .421432848088E-02  .889413058758E-05  .515359901810E+04
      .511200000000E+06  .968575477600E-07  .239637441738E+01 -.409781932831E-07
      .957000967389E+00  .205312500000E+03 -.246055741433E+01 -.805854995667E-08
     -.478234206089E-09  .100000000000E+01  .212900000000E+04  .000000000000E+00
      .200000000000E+01  .000000000000E+00  .465661287308E-09  .680000000000E+02
      .504006000000E+06  .400000000000E+01
G17 2020 10 30 22  0  0  .347211956978E-03  .522959453519E-11  .000000000000E+00
      .990000000000E+02 -.973750000000E+02  .384801742823E-08 -.225683955011E+01
     -.499375164509E-05  .135353360092E-01  .824034214020E-05  .515348891830E+04
      .511200000000E+06  .217929482460E-06 -.679147201573E+00  .465661287308E-07
      .983426035550E+00  .231781250000E+03 -.162121079668E+01 -.755174313184E-08
     -.383944564261E-09  .100000000000E+01  .212900000000E+04  .000000000000E+00
      .280000000000E+01  .000000000000E+00 -.111758708954E-07  .990000000000E+02
      .504006000000E+06  .400000000000E+01
G13 2020 10 30 22  0  0  .599659979343E-04  .386535248253E-11  .000000000000E+00
      .500000000000E+01 -.357500000000E+02  .432518016111E-08 -.276742700893E+01
     -.202283263206E-05  .473391660489E-02  .105295330286E-04  .515369195938E+04
      .511200000000E+06  .115483999252E-06  .253258442442E+01 -.707805156708E-07
      .968075957987E+00  .179375000000E+03  .105025832741E+01 -.781603985515E-08
     -.453233164695E-09  .100000000000E+01  .212900000000E+04  .000000000000E+00
      .200000000000E+01  .000000000000E+00 -.116415321827E-07  .500000000000E+01
      .504006000000E+06  .400000000000E+01
G29 2020 10 30 22  0  0 -.226471573114E-03 -.773070496507E-11  .000000000000E+00
      .103000000000E+03 -.110875000000E+03  .389801951102E-08 -.208559008911E+01
     -.579655170441E-05  .151447113603E-02  .865198671818E-05  .515373303413E+04
      .511200000000E+06  .111758708954E-07 -.667115551789E+00  .279396772385E-07
      .985179040044E+00  .225031250000E+03  .227241629512E+01 -.781782564382E-08
     -.449304429619E-09  .100000000000E+01  .212900000000E+04  .000000000000E+00
      .280000000000E+01  .000000000000E+00 -.102445483208E-07  .103000000000E+03
      .504426000000E+06  .400000000000E+01
G 6 2020 10 30 22  0  0 -.336252152920E-03 -.204636307899E-11  .000000000000E+00
      .600000000000E+02  .120000000000E+02  .367301013847E-08  .241351440447E+01
      .700354576111E-06  .191011466086E-02  .116806477308E-04  .515364732170E+04
      .511200000000E+06 -.353902578354E-07  .308850787984E+00  .540167093277E-07
      .981845491543E+00  .163906250000E+03 -.115634665517E+01 -.751495588522E-08
      .439304013061E-09  .100000000000E+01  .212900000000E+04  .000000000000E+00
      .200000000000E+01  .000000000000E+00  .419095158577E-08  .600000000000E+02
      .505686000000E+06  .400000000000E+01
G 2 2020 10 30 22  0  0 -.536380335689E-03 -.488853402203E-11  .000000000000E+00
      .800000000000E+02 -.228125000000E+01  .400230956940E-08  .220555084330E+01
     -.117346644402E-06  .199650437571E-01  .119991600513E-04  .515354985619E+04
      .511200000000E+06  .301748514175E-06  .237645937856E+00 -.109896063805E-06
      .961220416654E+00  .141062500000E+03 -.158977287148E+01 -.743316676409E-08
      .374658463172E-09  .100000000000E+01  .212900000000E+04  .000000000000E+00
      .200000000000E+01  .000000000000E+00 -.176951289177E-07  .800000000000E+02
      .505746000000E+06  .400000000000E+01
G31 2020 10 30 22  0  0 -.783223658800E-04 -.238742359215E-11  .000000000000E+00
      .480000000000E+02  .863750000000E+02  .451661670664E-08  .963809636826E+00
      .477395951748E-05  .981345970649E-02  .101011246443E-04  .515368992996E+04
      .511200000000E+06  .409781932831E-07 -.280681379607E+01  .113621354103E-06
      .957329876723E+00  .180031250000E+03  .185213205708E+00 -.804926385558E-08
      .550022910662E-10  .100000000000E+01  .212900000000E+04  .000000000000E+00
      .200000000000E+01  .000000000000E+00 -.130385160446E-07  .480000000000E+02
      .507396000000E+06  .400000000000E+01
G26 2020 10 30 22  0  0  .303888693452E-03  .613908923697E-11  .000000000000E+00
      .300000000000E+01  .407187500000E+02  .530486382601E-08 -.183044944602E+00
      .199116766453E-05  .516825367231E-02  .193156301975E-05  .515369655228E+04
      .511200000000E+06  .447034835815E-07 -.182378336136E+01  .726431608200E-07
      .944382653808E+00  .331750000000E+03  .201542101277E+00 -.875786480022E-08
      .346443002170E-10  .100000000000E+01  .212900000000E+04  .000000000000E+00
      .200000000000E+01  .000000000000E+00  .698491930962E-08  .300000000000E+01
      .511026000000E+06  .400000000000E+01
G25 2020 10 31  0  0  0  .139465555549E-04  .625277607469E-11  .000000000000E+00
      .180000000000E+02  .395625000000E+02  .497377860641E-08  .141288726550E+01
      .198185443878E-05  .924696680158E-02  .207312405109E-05  .515371302986E+04
      .518400000000E+06 -.229105353355E-06 -.178561019205E+01  .633299350739E-07
      .963346349688E+00  .341843750000E+03  .930098215513E+00 -.863571685513E-08
      .771460705864E-10  .100000000000E+01  .212900000000E+04  .000000000000E+00
      .200000000000E+01  .000000000000E+00  .558793544769E-08  .180000000000E+02
      .511206000000E+06  .400000000000E+01
G32 2020 10 31  0  0  0  .362921971828E-03  .363797880709E-11  .000000000000E+00
      .810000000000E+02 -.501250000000E+02  .474912639161E-08 -.339581626355E+00
     -.252947211266E-05  .421424175147E-02  .905804336071E-05  .515359855080E+04
      .518400000000E+06  .335276126862E-07  .239631617422E+01  .428408384323E-07
      .956997007270E+00  .204156250000E+03 -.246049736740E+01 -.815391107170E-08
     -.501449458811E-09  .100000000000E+01  .212900000000E+04  .000000000000E+00
      .200000000000E+01  .000000000000E+00  .465661287308E-09  .810000000000E+02
      .511206000000E+06  .400000000000E+01
G29 2020 10 31  0  0  0 -.226527918130E-03 -.773070496507E-11  .000000000000E+00
      .105000000000E+03 -.105750000000E+03  .387551857376E-08 -.103500742691E+01
     -.556558370590E-05  .151460862253E-02  .868923962116E-05  .515373429489E+04
      .518400000000E+06 -.186264514923E-08 -.667171891690E+00  .167638063431E-07
      .985175787977E+00  .223812500000E+03  .227197353565E+01 -.782389732530E-08
     -.450018745087E-09  .100000000000E+01  .212900000000E+04  .000000000000E+00
      .280000000000E+01  .000000000000E+00 -.102445483208E-07  .105000000000E+03
      .511206000000E+06  .400000000000E+01
G12 2020 10 31  0  0  0  .469363294542E-04 -.511590769747E-11  .000000000000E+00
      .500000000000E+01  .218750000000E+02  .460197740512E-08  .169142764168E+01
      .897794961929E-06  .795411085710E-02  .203028321266E-05  .515360651398E+04
      .518400000000E+06 -.175088644028E-06 -.171467651719E+01 -.178813934326E-06
      .975983627076E+00  .348187500000E+03  .116739836927E+01 -.835677666472E-08
      .407159816984E-10  .100000000000E+01  .212900000000E+04  .000000000000E+00
      .200000000000E+01  .000000000000E+00 -.125728547573E-07  .500000000000E+01
      .511206000000E+06  .400000000000E+01
G31 2020 10 31  0  0  0 -.783395953476E-04 -.238742359215E-11  .000000000000E+00
      .490000000000E+02  .912500000000E+02  .446554315065E-08  .201370728909E+01
      .492297112942E-05  .981429719832E-02  .113863497972E-04  .515369506836E+04
      .518400000000E+06 -.117346644402E-06 -.280687228792E+01  .206753611565E-06
      .957330647681E+00  .159000000000E+03  .185484307835E+00 -.800033324599E-08
      .174650132022E-09  .100000000000E+01  .212900000000E+04  .000000000000E+00
      .200000000000E+01  .000000000000E+00 -.130385160446E-07  .490000000000E+02
      .511206000000E+06  .400000000000E+01
G24 2020 10 31  0  0  0  .711996108294E-05 -.454747350886E-12  .000000000000E+00
      .260000000000E+02  .922187500000E+02  .477269880206E-08 -.291208833615E+01
      .453367829323E-05  .103795857867E-01  .115688890219E-04  .515364188004E+04
      .518400000000E+06 -.204890966415E-07 -.289779999040E+01 -.176951289177E-06
      .936304086629E+00  .143187500000E+03  .690710149959E+00 -.799390440678E-08
      .192150860997E-09  .100000000000E+01  .212900000000E+04  .000000000000E+00
      .280000000000E+01  .000000000000E+00  .279396772385E-08  .260000000000E+02
      .511206000000E+06  .400000000000E+01
G 2 2020 10 31  0  0  0 -.536415260285E-03 -.488853402203E-11  .000000000000E+00
      .810000000000E+02  .140625000000E+01  .402123892931E-08 -.302739957681E+01
      .175088644028E-06  .199654458556E-01  .118128955364E-04  .515354943085E+04
      .518400000000E+06  .210478901863E-06  .237592958278E+00  .000000000000E+00
      .961223003093E+00  .147562500000E+03 -.158975550372E+01 -.737887878849E-08
      .348585948575E-09  .100000000000E+01  .212900000000E+04  .000000000000E+00
      .280000000000E+01  .000000000000E+00 -.176951289177E-07  .810000000000E+02
      .511206000000E+06  .400000000000E+01
